NORAD_CAT_ID,OBJECT_NAME,OBJECT_TYPE,EPOCH,MEAN_MOTION,ECCENTRICITY,INCLINATION,RA_OF_ASC_NODE,ARG_OF_PERICENTER,MEAN_ANOMALY,BSTAR,MEAN_MOTION_DOT,MEAN_MOTION_DDOT,TLE_LINE0,TLE_LINE1,TLE_LINE2,SEMIMAJOR_AXIS,PERIOD,APOGEE,PERIGEE,DECAYED
49435.0,STARLINK-3117,PAYLOAD,2022-02-06 14:00:01,15.47473886,0.0001701,53.2172,75.6731,42.3204,163.9439,-0.0061961,-0.00311047,0.0,0 STARLINK-3117,1 49435U 21104AD  22037.58335648 -.00311047  00000-0 -61961-2 0  9992,2 49435  53.2172  75.6731 0001701  42.3204 163.9439 15.47473886 14621,6802.255999999999,93.055,425.278,422.964,0.0
49435.0,STARLINK-3117,PAYLOAD,2022-02-06 22:00:00,15.47258472,0.0001739,53.2175,74.0831,38.4666,225.6223,-0.0063053,-0.00314041,0.0,0 STARLINK-3117,1 49435U 21104AD  22037.91667824 -.00314041  00000-0 -63053-2 0  9994,2 49435  53.2175  74.0831 0001739  38.4666 225.6223 15.47258472  3668,6802.887,93.068,425.935,423.569,0.0
49435.0,STARLINK-3117,PAYLOAD,2022-02-07 14:00:01,15.46825327,0.0001538,53.2172,70.9105,41.1059,337.9756,-0.0064211,-0.00314982,0.0,0 STARLINK-3117,1 49435U 21104AD  22038.58334491 -.00314982  00000-0 -64211-2 0  9990,2 49435  53.2172  70.9105 0001538  41.1059 337.9756 15.46825327  3653,6804.156999999997,93.094,427.068,424.976,0.0
49435.0,STARLINK-3117,PAYLOAD,2022-02-07 22:00:00,15.46607346,0.0001654,53.2173,69.322,35.4533,40.7361,-0.0064589,-0.00314477,0.0,0 STARLINK-3117,1 49435U 21104AD  22038.91667824 -.00314477  00000-0 -64589-2 0  9993,2 49435  53.2173  69.3220 0001654  35.4533  40.7361 15.46607346 14827,6804.795999999999,93.107,427.787,425.536,0.0
49435.0,STARLINK-3117,PAYLOAD,2022-02-08 14:00:01,15.46174305,0.0001633,53.2171,66.1523,44.8479,144.7698,-0.006581,-0.00315609,0.0,0 STARLINK-3117,1 49435U 21104AD  22039.58334491 -.00315609  00000-0 -65810-2 0  9994,2 49435  53.2171  66.1523 0001633  44.8479 144.7698 15.46174305  3679,6806.066999999999,93.133,429.043,426.82,0.0
49435.0,STARLINK-3117,PAYLOAD,2022-02-08 22:00:01,15.4595634,0.0001733,53.2173,64.5652,39.4644,206.5432,-0.0065937,-0.00313923,0.0,0 STARLINK-3117,1 49435U 21104AD  22039.91668981 -.00313923  00000-0 -65937-2 0  9992,2 49435  53.2173  64.5652 0001733  39.4644 206.5432 15.45956340 14986,6806.706999999999,93.146,429.751,427.392,0.0
49435.0,STARLINK-3117,PAYLOAD,2022-02-09 14:00:50,15.46050307,0.0002079,53.2153,61.4098,17.1244,342.9834,-0.0019603,-0.0009657,0.0,0 STARLINK-3117,1 49435U 21104AD  22040.58391266 -.00096570  00000-0 -19603-2 0  9991,2 49435  53.2153  61.4098 0002079  17.1244 342.9834 15.46050307 14000,6806.431,93.141,429.711,426.881,0.0
49435.0,STARLINK-3117,PAYLOAD,2022-02-10 06:00:00,15.45089639,0.0002086,53.2175,58.232,28.0548,80.5746,-0.0068623,-0.00317009,0.0,0 STARLINK-3117,1 49435U 21104AD  22041.25001157 -.00317009  00000-0 -68623-2 0  9992,2 49435  53.2175  58.2320 0002086  28.0548  80.5746 15.45089639 15199,6809.252,93.198,432.537,429.696,0.0
49435.0,STARLINK-3117,PAYLOAD,2022-02-10 11:44:46,15.45474821,0.0003208999999999,53.2154,57.1129,36.4047,323.7179,-0.0021046,-0.00101574,0.0,0 STARLINK-3117,1 49435U 21104AD  22041.48942248 -.00101574  00000-0 -21046-2 0  9998,2 49435  53.2154  57.1129 0003209  36.4047 323.7179 15.45474821 14143,6808.12,93.175,432.17,427.801,0.0
49435.0,STARLINK-3117,PAYLOAD,2022-02-10 22:00:00,15.44655642,0.0001767,53.2173,55.066,39.1179,179.2917,-0.0069608999999999,-0.00316814,0.0,0 STARLINK-3117,1 49435U 21104AD  22041.91667824 -.00316814  00000-0 -69609-2 0  9992,2 49435  53.2173  55.0660 0001767  39.1179 179.2917 15.44655642  3653,6810.526999999999,93.225,433.596,431.189,0.0
49435.0,STARLINK-3117,PAYLOAD,2022-02-11 06:22:49,15.44938298,0.0001888,53.2155,53.4275,31.2654,328.8466,-0.0019441,-0.00092252,0.0,0 STARLINK-3117,1 49435U 21104AD  22042.26585056 -.00092252  00000-0 -19441-2 0  9993,2 49435  53.2155  53.4275 0001888  31.2654 328.8466 15.44938298 15343,6809.696,93.208,432.847,430.276,0.0
49435.0,STARLINK-3117,PAYLOAD,2022-02-11 12:35:20,15.44731771,0.0001274999999999,53.2146,52.1992,47.5938,312.5178,-0.0029081,-0.00136045,0.0,0 STARLINK-3117,1 49435U 21104AD  22042.52454761 -.00136045  00000-0 -29081-2 0  9990,2 49435  53.2146  52.1992 0001275  47.5938 312.5178 15.44731771 15381,6810.303000000001,93.22,433.037,431.3,0.0
49435.0,STARLINK-3117,PAYLOAD,2022-02-11 22:00:01,15.44002736,0.0001624,53.2173,50.3236,37.079,344.1089,-0.0070526,-0.0031403,0.0,0 STARLINK-3117,1 49435U 21104AD  22042.91668981 -.00314030  00000-0 -70526-2 0  9996,2 49435  53.2173  50.3236 0001624  37.0790 344.1089 15.44002736 15441,6812.446999999999,93.264,435.418,433.206,0.0
49435.0,STARLINK-3117,PAYLOAD,2022-02-12 05:40:40,15.44253692,0.0001882,53.2151,48.8237,20.8562,339.2522,-0.0029669,-0.0013655,0.0,0 STARLINK-3117,1 49435U 21104AD  22043.23657806 -.00136550  00000-0 -29669-2 0  9997,2 49435  53.2151  48.8237 0001882  20.8562 339.2522 15.44253692 15494,6811.709,93.249,434.856,432.292,0.0
49435.0,STARLINK-3117,PAYLOAD,2022-02-12 13:26:48,15.44059611,0.0001597,53.2145,47.2925,49.9848,310.1299,-0.0028754,-0.00131563,0.0,0 STARLINK-3117,1 49435U 21104AD  22043.56028725 -.00131563  00000-0 -28754-2 0  9998,2 49435  53.2145  47.2925 0001597  49.9848 310.1299 15.44059611 14466,6812.28,93.261,435.233,433.057,0.0
49435.0,STARLINK-3117,PAYLOAD,2022-02-12 22:00:00,15.43354727,0.0001844,53.2171,45.5857,36.7257,144.7629,-0.0073377,-0.00319401,0.0,0 STARLINK-3117,1 49435U 21104AD  22043.91667824 -.00319401  00000-0 -73377-2 0  9996,2 49435  53.2171  45.5857 0001844  36.7257 144.7629 15.43354727 15603,6814.354,93.303,437.475,434.962,0.0
49435.0,STARLINK-3117,PAYLOAD,2022-02-13 14:00:01,15.4292144,0.0001591,53.2172,42.4313,45.7784,241.3161,-0.0074723,-0.00320472,0.0,0 STARLINK-3117,1 49435U 21104AD  22044.58334491 -.00320472  00000-0 -74723-2 0  9997,2 49435  53.2172  42.4313 0001591  45.7784 241.3161 15.42921440  3660,6815.629,93.329,438.579,436.41,0.0
49435.0,STARLINK-3117,PAYLOAD,2022-02-14 06:00:00,15.42325998,0.0001829,53.217,39.2792,45.3292,346.4212,-0.0022686,-0.00098421,0.0,0 STARLINK-3117,1 49435U 21104AD  22045.25001157 -.00098421  00000-0 -22686-2 0  9999,2 49435  53.2170  39.2792 0001829  45.3292 346.4212 15.42325998 15806,6817.3830000000025,93.365,440.495,438.002,0.0
49435.0,STARLINK-3117,PAYLOAD,2022-02-14 14:00:01,15.42268614,0.000161,53.2172,37.7012,39.0925,44.4573,-0.0075421,-0.00316594,0.0,0 STARLINK-3117,1 49435U 21104AD  22045.58334491 -.00316594  00000-0 -75421-2 0  9994,2 49435  53.2172  37.7012 0001610  39.0925  44.4573 15.42268614 15869,6817.553000000001,93.369,440.515,438.32,0.0
49435.0,STARLINK-3117,PAYLOAD,2022-02-14 22:00:00,15.42052186,0.0001887,53.2174,36.1241,33.8896,101.291,-0.0076331,-0.00318045,0.0,0 STARLINK-3117,1 49435U 21104AD  22045.91667824 -.00318045  00000-0 -76331-2 0  9994,2 49435  53.2174  36.1241 0001887  33.8896 101.2910 15.42052186  3660,6818.19,93.382,441.342,438.769,0.0
49435.0,STARLINK-3117,PAYLOAD,2022-02-15 14:00:01,15.41545106,0.000181,53.2166,32.9771,34.199,203.4939,-0.005038,-0.00209427,0.0,0 STARLINK-3117,1 49435U 21104AD  22046.58334491 -.00209427  00000-0 -50380-2 0  9998,2 49435  53.2166  32.9771 0001810  34.1990 203.4939 15.41545106  3639,6819.686,93.413,442.785,440.316,0.0
49435.0,STARLINK-3117,PAYLOAD,2022-02-15 22:00:01,15.41399544,0.0001769,53.2175,31.4001,39.1079,249.4632,-0.0077209,-0.00314876,0.0,0 STARLINK-3117,1 49435U 21104AD  22046.91668981 -.00314876  00000-0 -77209-2 0  9993,2 49435  53.2175  31.4001 0001769  39.1079 249.4632 15.41399544  3650,6820.115,93.422,443.186,440.773,0.0
49435.0,STARLINK-3117,PAYLOAD,2022-02-16 14:00:01,15.40966923,0.0001574,53.2173,28.2547,41.5405,347.8787,-0.0079075,-0.00317735,0.0,0 STARLINK-3117,1 49435U 21104AD  22047.58334491 -.00317735  00000-0 -79075-2 0  9993,2 49435  53.2173  28.2547 0001574  41.5405 347.8787 15.40966923  3655,6821.391,93.448,444.33,442.1830000000001,0.0
49435.0,STARLINK-3117,PAYLOAD,2022-02-16 22:00:00,15.40613003,0.0001686,53.2167,26.6825,30.2272,49.3276,-0.0028382,-0.00115949,0.0,0 STARLINK-3117,1 49435U 21104AD  22047.91667824 -.00115949  00000-0 -28382-2 0  9997,2 49435  53.2167  26.6825 0001686  30.2272  49.3276 15.40613003  3633,6822.436,93.469,445.451,443.151,0.0
49435.0,STARLINK-3117,PAYLOAD,2022-02-17 06:00:00,15.40375414,0.0001817,53.2169,25.1127,48.5293,80.8465,-0.0023788,-0.00096728,0.0,0 STARLINK-3117,1 49435U 21104AD  22048.25001157 -.00096728  00000-0 -23788-2 0  9994,2 49435  53.2169  25.1127 0001817  48.5293  80.8465 15.40375414 16270,6823.137,93.484,446.242,443.763,0.0
49435.0,STARLINK-3117,PAYLOAD,2022-02-17 14:00:01,15.40195348,0.0001748,53.2164,23.5403,35.0491,143.8442,-0.0034669,-0.00139185,0.0,0 STARLINK-3117,1 49435U 21104AD  22048.58334491 -.00139185  00000-0 -34669-2 0  9995,2 49435  53.2164  23.5403 0001748  35.0491 143.8442 15.40195348 16325,6823.669,93.495,446.727,444.342,0.0
49435.0,STARLINK-3117,PAYLOAD,2022-02-17 22:00:00,15.39960283,0.0002012,53.2165,21.9678,43.819,184.3697,-0.0028589,-0.0011433,0.0,0 STARLINK-3117,1 49435U 21104AD  22048.91667824 -.00114330  00000-0 -28589-2 0  9990,2 49435  53.2165  21.9678 0002012  43.8190 184.3697 15.39960283 16373,6824.364000000001,93.509,447.602,444.856,0.0
49435.0,STARLINK-3117,PAYLOAD,2022-02-18 06:00:00,15.39716716,0.0001817,53.2169,20.3997,39.8273,237.4064,-0.0023239,-0.00092528,0.0,0 STARLINK-3117,1 49435U 21104AD  22049.25001157 -.00092528  00000-0 -23239-2 0  9990,2 49435  53.2169  20.3997 0001817  39.8273 237.4064 15.39716716 16427,6825.083000000001,93.524,448.18800000000016,445.708,0.0
49435.0,STARLINK-3117,PAYLOAD,2022-02-18 14:00:01,15.39665852,0.0001554,53.2173,18.8268,45.4877,280.4131,-0.0083105,-0.00319739,0.0,0 STARLINK-3117,1 49435U 21104AD  22049.58334491 -.00319739  00000-0 -83105-2 0  9990,2 49435  53.2173  18.8268 0001554  45.4877 280.4131 15.39665852 16478,6825.234,93.527,448.159,446.038,0.0
